1 44062U 19010F   24149.61579686  .00000074  00000+0  16224-3 0  9993
2 44062  87.9052  48.3542 0002115  77.5892 282.5475 13.15545926252869


1 48042U 21025A   24149.43551413  .00000097  00000+0  23081-3 0  9996
2 48042  87.8909 109.4740 0002060  87.7794 272.3571 13.13467809155174


1 48043U 21025B   24149.37202731 -.00000556  00000+0 -15565-2 0  9995
2 48043  87.8915 109.4838 0002034  87.8548 272.2814 13.13469819155126


1 48044U 21025C   24149.42599639  .00000246  00000+0  63789-3 0  9994
2 48044  87.8917 109.4603 0002064  80.1185 280.0178 13.13467712155125


1 48045U 21025D   24149.42282269  .00000348  00000+0  91781-3 0  9999
2 48045  87.8914 109.4728 0002120  81.9379 278.1990 13.13468025155081


1 48046U 21025E   24149.38790529 -.00000154  00000+0 -45776-3 0  9998
2 48046  87.8916 109.4480 0002053  89.7914 270.3451 13.13471200155226


1 48047U 21025F   24149.43868182 -.00006544  00000+0 -17960-1 0  9997
2 48047  87.8910 109.4581 0002088  75.2756 284.8604 13.13500765155123


1 48048U 21025G   24149.44027570  .00000179  00000+0  45431-3 0  9999
2 48048  87.8913 109.4565 0001846  78.8608 281.2729 13.13469802155108


1 48050U 21025J   24149.38154505 -.00000228  00000+0 -65806-3 0  9999
2 48050  87.8914 109.4641 0002064  88.3136 271.8229 13.13467601155152


1 48051U 21025K   24149.44503206 -.00000182  00000+0 -53201-3 0  9998
2 48051  87.8909 109.4522 0001964  82.9953 277.1399 13.13467405155171


1 48052U 21025L   24149.37838664 -.00000218  00000+0 -63186-3 0  9993
2 48052  87.8912 109.4621 0001997  82.1429 277.9927 13.13469332155145


1 48053U 21025M   24149.42758288  .00000262  00000+0  68332-3 0  9998
2 48053  87.8918 109.4590 0002148  78.9467 281.1904 13.13467981155084


1 48054U 21025N   24149.38949582 -.00000122  00000+0 -36887-3 0  9990
2 48054  87.8913 109.4575 0001950  86.6555 273.4797 13.13469293155203


1 48056U 21025Q   24149.37678621 -.00000488  00000+0 -13704-2 0  9991
2 48056  87.8910 109.4716 0001946  80.9859 279.1491 13.13469610155115


1 48057U 21025R   24149.39743085  .00000069  00000+0  15299-3 0  9996
2 48057  87.8911 109.4777 0002083  83.8398 276.2968 13.13469464155256


1 48058U 21025S   24149.41806268  .00000343  00000+0  90368-3 0  9998
2 48058  87.8911 109.4701 0001797  81.3016 278.8317 13.13470398155068


1 48059U 21025T   24149.38314862 -.00000274  00000+0 -78565-3 0  9999
2 48059  87.8917 109.4865 0001557  68.9841 291.1454 13.13472577155181


1 48061U 21025V   24149.38473333 -.00000205  00000+0 -59678-3 0  9999
2 48061  87.8912 109.4750 0002120  75.4526 284.6838 13.13469213155256


1 48062U 21025W   24149.44980399 -.00000200  00000+0 -58150-3 0  9991
2 48062  87.8912 109.4457 0001947  76.7364 283.3982 13.13469295155189


1 48063U 21025X   24149.43234092  .00000142  00000+0  35416-3 0  9996
2 48063  87.8912 109.4592 0002121  82.8696 277.2674 13.13467678155162


1 48064U 21025Y   24149.38553144 -.00000137  00000+0 -40958-3 0  9996
2 48064  87.8912 109.4799 0002075  77.8006 282.3356 13.13471445155148


1 48067U 21025AB  24149.41647505  .00000390  00000+0  10329-2 0  9995
2 48067  87.8912 109.4732 0002499  96.1610 263.9803 13.13468916155122


1 48069U 21025AD  24149.39425679 -.00000019  00000+0 -88214-4 0  9990
2 48069  87.8915 109.4568 0002424  75.7920 284.3478 13.13469630155375


1 48070U 21025AE  24149.43075648  .00000203  00000+0  52203-3 0  9995
2 48070  87.8916 109.4851 0002165  81.5498 278.5877 13.13467809155194


1 48072U 21025AG  24149.39266781 -.00000018  00000+0 -85068-4 0  9994
2 48072  87.8916 109.4732 0001895  81.8270 278.3074 13.13471280155403


1 48073U 21025AH  24149.42123812  .00000415  00000+0  11007-2 0  9995
2 48073  87.8906 109.4583 0002388  89.1789 270.9614 13.13468089155064


1 48074U 21025AJ  24149.43392807  .00000151  00000+0  37807-3 0  9993
2 48074  87.8911 109.4627 0002103  72.3490 287.7868 13.13467438155253


1 48075U 21025AK  24149.37533672 -.00000222  00000+0 -64377-3 0  9997
2 48075  87.8917 109.4905 0002119  76.5602 283.5764 13.13472901155291


1 48077U 21025AM  24149.44344495 -.00000121  00000+0 -36522-3 0  9999
2 48077  87.8914 109.4675 0001804  85.3847 274.7488 13.13467659153885


1 48210U 21031A   24149.34269355  .00000195  00000+0  49044-3 0  9997
2 48210  87.8967  78.8879 0002037  80.3800 279.7560 13.14502232149801


1 48211U 21031B   24149.54408831  .00000086  00000+0  19815-3 0  9996
2 48211  87.8961  78.8320 0003026  86.1549 273.9926 13.14504001149808


1 48212U 21031C   24149.51395753 -.00000109  00000+0 -32960-3 0  9996
2 48212  87.8967  78.8404 0002022  77.4907 282.6449 13.14502588149843


1 48213U 21031D   24149.54726096  .00000126  00000+0  30411-3 0  9994
2 48213  87.8963  78.8322 0002039  74.6429 285.4926 13.14501737149739


1 48214U 21031E   24149.49336073  .00000342  00000+0  88679-3 0  9990
2 48214  87.8965  78.8451 0003776  67.7533 292.3997 13.14506481149885


1 48215U 21031F   24149.55836018  .00000284  00000+0  73151-3 0  9996
2 48215  87.8965  78.8655 0002014  74.5532 285.5820 13.14501596149893


1 48216U 21031G   24149.54250213 -.00000030  00000+0 -11513-3 0  9998
2 48216  87.8963  78.8732 0002413  75.3182 284.8215 13.14502241150004


1 48217U 21031H   24149.55519068  .00000181  00000+0  45352-3 0  9999
2 48217  87.8965  78.8466 0002446  72.9439 287.1959 13.14501508149740


1 48218U 21031J   24149.53298500 -.00000106  00000+0 -31925-3 0  9993
2 48218  87.8966  78.8541 0002114  81.0972 279.0397 13.14502763149730


1 48219U 21031K   24149.50760388  .00000027  00000+0  37310-4 0  9994
2 48219  87.8967  78.8758 0001943  75.1324 285.0021 13.14505043149832


1 48220U 21031L   24149.53377898 -.00000125  00000+0 -37122-3 0  9990
2 48220  87.8963  78.8431 0001950  72.9795 287.1548 13.14502302149767


1 48221U 21031M   24149.50365404  .00000082  00000+0  18696-3 0  9993
2 48221  87.8967  78.8816 0001970  75.4297 284.7051 13.14501971149770


1 48222U 21031N   24149.55993039  .00000097  00000+0  22716-3 0  9994
2 48222  87.8965  78.8672 0002159  76.4163 283.7207 13.14506255149695


1 48223U 21031P   24149.53931652  .00000028  00000+0  40713-4 0  9998
2 48223  87.8965  78.8459 0002019  73.6846 286.4505 13.14505105149897


1 48224U 21031Q   24149.52029581 -.00000522  00000+0 -14423-2 0  9995
2 48224  87.8959  78.8685 0002856  73.6485 286.4959 13.14498595149875


1 48225U 21031R   24149.55439215  .00000192  00000+0  48328-3 0  9991
2 48225  87.8964  78.8746 0001588  79.8975 280.2334 13.14502104149773


1 48226U 21031S   24149.52981347 -.00000086  00000+0 -26716-3 0  9998
2 48226  87.8965  78.8506 0002043  74.6092 285.5263 13.14502212149789


1 48227U 21031T   24149.50286045  .00000052  00000+0  10566-3 0  9997
2 48227  87.8964  78.8458 0001956  73.2271 286.9074 13.14502666149734


1 48228U 21031U   24149.49809644  .00000155  00000+0  38391-3 0  9992
2 48228  87.8969  78.8732 0001845  81.5359 278.5980 13.14500731149948


1 48229U 21031V   24149.50920099  .00000027  00000+0  38983-4 0  9999
2 48229  87.8968  78.8349 0002079  77.5231 282.6131 13.14502409149898


1 48230U 21031W   24149.33476379  .00000292  00000+0  75244-3 0  9993
2 48230  87.8969  78.9390 0002174  79.2742 280.8633 13.14501323149723


1 48231U 21031X   24149.52505589 -.00000119  00000+0 -35428-3 0  9991
2 48231  87.8965  78.8971 0002010  77.3873 282.7481 13.14502491149658


1 48232U 21031Y   24149.33634842  .00000311  00000+0  80426-3 0  9996
2 48232  87.8959  78.9008 0001993  70.2346 289.8999 13.14501403149890


1 48233U 21031Z   24149.51712251 -.00000109  00000+0 -32910-3 0  9990
2 48233  87.8966  78.8795 0002148  75.5798 284.5570 13.14504552149876


1 48234U 21031AA  24149.50126776  .00000187  00000+0  47062-3 0  9999
2 48234  87.8966  78.8528 0001996  75.3096 284.8255 13.14500918149774


1 48235U 21031AB  24149.49175352  .00000227  00000+0  57756-3 0  9998
2 48235  87.8965  78.8560 0002368  90.2791 269.8610 13.14501761149788


1 48236U 21031AC  24149.54329195  .00000011  00000+0 -47829-5 0  9995
2 48236  87.8967  78.8539 0001611  79.0565 281.0746 13.14502177149701


1 48237U 21031AD  24149.52188463 -.00000168  00000+0 -48679-3 0  9991
2 48237  87.8968  78.8510 0002126  87.6333 272.5040 13.14502808149873


1 48238U 21031AE  24149.53773742  .00000862  00000+0  22910-2 0  9991
2 48238  87.8965  78.8560 0002173  80.8266 279.3109 13.14501023149822


1 48239U 21031AF  24149.54884318  .00000085  00000+0  19490-3 0  9992
2 48239  87.8963  78.8381 0002121  80.4765 279.6604 13.14501952149683


1 48240U 21031AG  24149.52584307 -.00000160  00000+0 -46656-3 0  9997
2 48240  87.8964  78.8422 0002359  72.3111 287.8276 13.14500498149668


1 48241U 21031AH  24149.51473960 -.00000134  00000+0 -39723-3 0  9997
2 48241  87.8969  78.8783 0002107  77.3577 282.7788 13.14504529149892


1 48242U 21031AJ  24149.49413344  .00000202  00000+0  50971-3 0  9997
2 48242  87.8964  78.8485 0001835  75.6977 284.4357 13.14501064149802


1 48243U 21031AK  24149.55201498  .00000189  00000+0  47457-3 0  9999
2 48243  87.8963  78.8521 0002130  76.5597 283.5770 13.14502368149829


1 48244U 21031AL  24149.51554590 -.00000069  00000+0 -22099-3 0  9994
2 48244  87.8965  78.8567 0002193  77.4773 282.6602 13.14502853149741


1 48245U 21031AM  24149.53138953 -.00000126  00000+0 -37429-3 0  9995
2 48245  87.8963  78.8383 0002338  76.0244 284.1146 13.14500317149692


1 48767U 21045A   24149.47400182  .00000209  00000+0  52125-3 0  9998
2 48767  87.9050  48.3723 0001934  81.9881 278.1469 13.15551732145844


1 48769U 21045C   24149.46764081  .00000160  00000+0  39112-3 0  9997
2 48769  87.9052  48.4514 0001797  82.8579 277.2756 13.15550322146099


1 48784U 21045T   24149.47636142  .00000227  00000+0  56909-3 0  9998
2 48784  87.9050  48.3998 0001856  75.1034 285.0302 13.15549850145802


1 48788U 21045X   24149.61658636  .00000088  00000+0  19839-3 0  9996
2 48788  87.9051  48.3375 0001891 100.5361 259.5983 13.15550112145737


1 48789U 21045Y   24149.47082317  .00000158  00000+0  38652-3 0  9990
2 48789  87.9055  48.3837 0002147  84.2909 275.8466 13.15547135145802
